{"type": "FeatureCollection", "features": [ {"type": "Feature", "properties": {"norad_id": 34637, "name": "COSMOS 2251 DEB", "group": "cosmos-2251-debris", "lat": -73.98649182384789, "lon": -13.05100491136479, "alt_km": 722.6893404960074, "timestamp": "2025-12-27T22:26:48.995417+00:00", "meta": {"OBJECT_NAME": "COSMOS 2251 DEB", "OBJECT_ID": "1993-036XJ", "EPOCH": "2025-12-27T06:40:32.935008", "MEAN_MOTION": 14.60219268, "ECCENTRICITY": 0.0048663, "INCLINATION": 74.0492, "RA_OF_ASC_NODE": 73.4289, "ARG_OF_PERICENTER": 139.9632, "MEAN_ANOMALY": 277.9643, "EPHEMERIS_TYPE": 0, "CLASSIFICATION_TYPE": "U", "NORAD_CAT_ID": 34637, "ELEMENT_SET_NO": 999, "REV_AT_EPOCH": 88739, "BSTAR": 0.0008852, "MEAN_MOTION_DOT": 4.312e-05, "MEAN_MOTION_DDOT": 0}, "tle": {"line1": "1 34637U 93036XJ  25361.27815897  .00004312  00000+0  88520-3 0  9993", "line2": "2 34637  74.0492  73.4289 0048663 139.9632 277.9643 14.60219268887396"}}, "geometry": {"type": "Point", "coordinates": [-13.05100491136479, -73.98649182384789]}}, {"type": "Feature", "properties": {"norad_id": 34641, "name": "COSMOS 2251 DEB", "group": "cosmos-2251-debris", "lat": 0.8428068128713496, "lon": -127.57088939872365, "alt_km": 732.609498103584, "timestamp": "2025-12-27T22:26:48.995427+00:00", "meta": {"OBJECT_NAME": "COSMOS 2251 DEB", "OBJECT_ID": "1993-036XN", "EPOCH": "2025-12-26T14:54:30.263040", "MEAN_MOTION": 14.5208918, "ECCENTRICITY": 0.0019151, "INCLINATION": 73.8391, "RA_OF_ASC_NODE": 55.1782, "ARG_OF_PERICENTER": 328.0054, "MEAN_ANOMALY": 184.3533, "EPHEMERIS_TYPE": 0, "CLASSIFICATION_TYPE": "U", "NORAD_CAT_ID": 34641, "ELEMENT_SET_NO": 999, "REV_AT_EPOCH": 88457, "BSTAR": 0.00070823, "MEAN_MOTION_DOT": 2.845e-05, "MEAN_MOTION_DDOT": 0}, "tle": {"line1": "1 34641U 93036XN  25360.62118360  .00002845  00000+0  70823-3 0  9993", "line2": "2 34641  73.8391  55.1782 0019151 328.0054 184.3533 14.52089180884575"}}, "geometry": {"type": "Point", "coordinates": [-127.57088939872365, 0.8428068128713496]}}, {"type": "Feature", "properties": {"norad_id": 34642, "name": "COSMOS 2251 DEB", "group": "cosmos-2251-debris", "lat": -60.77693200282899, "lon": 164.32775002060382, "alt_km": 966.0604539191836, "timestamp": "2025-12-27T22:26:48.995437+00:00", "meta": {"OBJECT_NAME": "COSMOS 2251 DEB", "OBJECT_ID": "1993-036XP", "EPOCH": "2025-12-27T04:12:31.665600", "MEAN_MOTION": 13.99013931, "ECCENTRICITY": 0.02063991, "INCLINATION": 74.0044, "RA_OF_ASC_NODE": 314.7959, "ARG_OF_PERICENTER": 131.1703, "MEAN_ANOMALY": 246.016, "EPHEMERIS_TYPE": 0, "CLASSIFICATION_TYPE": "U", "NORAD_CAT_ID": 34642, "ELEMENT_SET_NO": 999, "REV_AT_EPOCH": 85495, "BSTAR": 0.0009419256, "MEAN_MOTION_DOT": 1.612e-05, "MEAN_MOTION_DDOT": 0}, "tle": {"line1": "1 34642U 93036XP  25361.17536650  .00001612  00000+0  94193-3 0  9998", "line2": "2 34642  74.0044 314.7959 0206399 131.1703 246.0160 13.99013931854952"}}, "geometry": {"type": "Point", "coordinates": [164.32775002060382, -60.77693200282899]}}, {"type": "Feature", "properties": {"norad_id": 34671, "name": "COSMOS 2251 DEB", "group": "cosmos-2251-debris", "lat": 22.055811240287344, "lon": 111.62084181744389, "alt_km": 676.3285354445134, "timestamp": "2025-12-27T22:26:48.995448+00:00", "meta": {"OBJECT_NAME": "COSMOS 2251 DEB", "OBJECT_ID": "1993-036XR", "EPOCH": "2025-12-27T09:32:53.229984", "MEAN_MOTION": 14.67197334, "ECCENTRICITY": 0.0010277, "INCLINATION": 74.0279, "RA_OF_ASC_NODE": 105.9946, "ARG_OF_PERICENTER": 187.5086, "MEAN_ANOMALY": 238.0162, "EPHEMERIS_TYPE": 0, "CLASSIFICATION_TYPE": "U", "NORAD_CAT_ID": 34671, "ELEMENT_SET_NO": 999, "REV_AT_EPOCH": 88512, "BSTAR": 0.0018779, "MEAN_MOTION_DOT": 0.00010565, "MEAN_MOTION_DDOT": 0}, "tle": {"line1": "1 34671U 93036XR  25361.39783831  .00010565  00000+0  18779-2 0  9991", "line2": "2 34671  74.0279 105.9946 0010277 187.5086 238.0162 14.67197334885129"}}, "geometry": {"type": "Point", "coordinates": [111.62084181744389, 22.055811240287344]}}, {"type": "Feature", "properties": {"norad_id": 34672, "name": "COSMOS 2251 DEB", "group": "cosmos-2251-debris", "lat": -31.109271049704397, "lon": -92.2741438514551, "alt_km": 759.5077269679905, "timestamp": "2025-12-27T22:26:48.995458+00:00", "meta": {"OBJECT_NAME": "COSMOS 2251 DEB", "OBJECT_ID": "1993-036XS", "EPOCH": "2025-12-23T01:39:52.431840", "MEAN_MOTION": 14.36424251, "ECCENTRICITY": 0.00243004, "INCLINATION": 74.0343, "RA_OF_ASC_NODE": 286.6106, "ARG_OF_PERICENTER": 356.389, "MEAN_ANOMALY": 18.9966, "EPHEMERIS_TYPE": 0, "CLASSIFICATION_TYPE": "U", "NORAD_CAT_ID": 34672, "ELEMENT_SET_NO": 999, "REV_AT_EPOCH": 65326, "BSTAR": 0.00025150328, "MEAN_MOTION_DOT": 7.13e-06, "MEAN_MOTION_DDOT": 0}, "tle": {"line1": "1 34672U 93036XS  25357.06935685  .00000713  00000+0  25150-3 0  9993", "line2": "2 34672  74.0343 286.6106 0024300 356.3890  18.9966 14.36424251653260"}}, "geometry": {"type": "Point", "coordinates": [-92.2741438514551, -31.109271049704397]}}, {"type": "Feature", "properties": {"norad_id": 34678, "name": "COSMOS 2251 DEB", "group": "cosmos-2251-debris", "lat": 15.717419930883711, "lon": 153.44613610179283, "alt_km": 805.6800682094718, "timestamp": "2025-12-27T22:26:48.995468+00:00", "meta": {"OBJECT_NAME": "COSMOS 2251 DEB", "OBJECT_ID": "1993-036XY", "EPOCH": "2025-12-27T04:57:59.501088", "MEAN_MOTION": 14.30067642, "ECCENTRICITY": 0.002488, "INCLINATION": 74.0379, "RA_OF_ASC_NODE": 339.3896, "ARG_OF_PERICENTER": 24.149, "MEAN_ANOMALY": 350.9711, "EPHEMERIS_TYPE": 0, "CLASSIFICATION_TYPE": "U", "NORAD_CAT_ID": 34678, "ELEMENT_SET_NO": 999, "REV_AT_EPOCH": 87586, "BSTAR": 4.1594e-05, "MEAN_MOTION_DOT": 8.2e-07, "MEAN_MOTION_DDOT": 0}, "tle": {"line1": "1 34678U 93036XY  25361.20693867  .00000082  00000+0  41594-4 0  9993", "line2": "2 34678  74.0379 339.3896 0024880  24.1490 350.9711 14.30067642875866"}}, "geometry": {"type": "Point", "coordinates": [153.44613610179283, 15.717419930883711]}}, {"type": "Feature", "properties": {"norad_id": 34680, "name": "COSMOS 2251 DEB", "group": "cosmos-2251-debris", "lat": -38.538470477325816, "lon": 87.66910678777971, "alt_km": 698.6460041863411, "timestamp": "2025-12-27T22:26:48.995478+00:00", "meta": {"OBJECT_NAME": "COSMOS 2251 DEB", "OBJECT_ID": "1993-036YA", "EPOCH": "2025-12-27T08:05:58.424928", "MEAN_MOTION": 14.60778491, "ECCENTRICITY": 0.0006105, "INCLINATION": 74.0433, "RA_OF_ASC_NODE": 101.9838, "ARG_OF_PERICENTER": 204.6627, "MEAN_ANOMALY": 212.5097, "EPHEMERIS_TYPE": 0, "CLASSIFICATION_TYPE": "U", "NORAD_CAT_ID": 34680, "ELEMENT_SET_NO": 999, "REV_AT_EPOCH": 88541, "BSTAR": 0.0012557, "MEAN_MOTION_DOT": 6.107e-05, "MEAN_MOTION_DDOT": 0}, "tle": {"line1": "1 34680U 93036YA  25361.33748177  .00006107  00000+0  12557-2 0  9994", "line2": "2 34680  74.0433 101.9838 0006105 204.6627 212.5097 14.60778491885412"}}, "geometry": {"type": "Point", "coordinates": [87.66910678777971, -38.538470477325816]}}, {"type": "Feature", "properties": {"norad_id": 34681, "name": "COSMOS 2251 DEB", "group": "cosmos-2251-debris", "lat": -11.672593221030896, "lon": -103.02992278296554, "alt_km": 607.1288058218015, "timestamp": "2025-12-27T22:26:48.995488+00:00", "meta": {"OBJECT_NAME": "COSMOS 2251 DEB", "OBJECT_ID": "1993-036YB", "EPOCH": "2025-12-27T01:58:18.168672", "MEAN_MOTION": 14.835364, "ECCENTRICITY": 0.00256374, "INCLINATION": 74.0624, "RA_OF_ASC_NODE": 262.0409, "ARG_OF_PERICENTER": 316.8088, "MEAN_ANOMALY": 156.5247, "EPHEMERIS_TYPE": 0, "CLASSIFICATION_TYPE": "U", "NORAD_CAT_ID": 34681, "ELEMENT_SET_NO": 999, "REV_AT_EPOCH": 89483, "BSTAR": 0.001502158, "MEAN_MOTION_DOT": 0.00012427, "MEAN_MOTION_DDOT": 0}, "tle": {"line1": "1 34681U 93036YB  25361.08215473  .00012427  00000+0  15022-2 0  9997", "line2": "2 34681  74.0624 262.0409 0025637 316.8088 156.5247 14.83536400894833"}}, "geometry": {"type": "Point", "coordinates": [-103.02992278296554, -11.672593221030896]}}, {"type": "Feature", "properties": {"norad_id": 34682, "name": "COSMOS 2251 DEB", "group": "cosmos-2251-debris", "lat": -25.311032104574117, "lon": -118.17462242257314, "alt_km": 690.1188244451623, "timestamp": "2025-12-27T22:26:48.995497+00:00", "meta": {"OBJECT_NAME": "COSMOS 2251 DEB", "OBJECT_ID": "1993-036YC", "EPOCH": "2025-12-27T10:03:14.433984", "MEAN_MOTION": 14.58995786, "ECCENTRICITY": 0.0017502, "INCLINATION": 74.0396, "RA_OF_ASC_NODE": 55.0298, "ARG_OF_PERICENTER": 186.32, "MEAN_ANOMALY": 188.8278, "EPHEMERIS_TYPE": 0, "CLASSIFICATION_TYPE": "U", "NORAD_CAT_ID": 34682, "ELEMENT_SET_NO": 999, "REV_AT_EPOCH": 88900, "BSTAR": 0.00078916, "MEAN_MOTION_DOT": 3.685e-05, "MEAN_MOTION_DDOT": 0}, "tle": {"line1": "1 34682U 93036YC  25361.41891706  .00003685  00000+0  78916-3 0  9992", "line2": "2 34682  74.0396  55.0298 0017502 186.3200 188.8278 14.58995786889007"}}, "geometry": {"type": "Point", "coordinates": [-118.17462242257314, -25.311032104574117]}}, {"type": "Feature", "properties": {"norad_id": 34683, "name": "COSMOS 2251 DEB", "group": "cosmos-2251-debris", "lat": -50.29516401561602, "lon": 42.87115024631495, "alt_km": 692.3961765240447, "timestamp": "2025-12-27T22:26:48.995507+00:00", "meta": {"OBJECT_NAME": "COSMOS 2251 DEB", "OBJECT_ID": "1993-036YD", "EPOCH": "2025-12-27T06:35:23.843328", "MEAN_MOTION": 14.64671179, "ECCENTRICITY": 0.001715, "INCLINATION": 74.029, "RA_OF_ASC_NODE": 64.3168, "ARG_OF_PERICENTER": 178.5514, "MEAN_ANOMALY": 245.8533, "EPHEMERIS_TYPE": 0, "CLASSIFICATION_TYPE": "U", "NORAD_CAT_ID": 34683, "ELEMENT_SET_NO": 999, "REV_AT_EPOCH": 88561, "BSTAR": 0.0012711, "MEAN_MOTION_DOT": 6.752e-05, "MEAN_MOTION_DDOT": 0}, "tle": {"line1": "1 34683U 93036YD  25361.27458152  .00006752  00000+0  12711-2 0  9999", "line2": "2 34683  74.0290  64.3168 0017150 178.5514 245.8533 14.64671179885615"}}, "geometry": {"type": "Point", "coordinates": [42.87115024631495, -50.29516401561602]}}]}